ORBCOMM-X [-]           
1 21576U 91050C   23316.74300935  .00000574  00000+0  18739-3 0  9998
2 21576  98.4192  22.2063 0004518 133.9453 226.2110 14.42252882698136
ORBCOMM FM01 [-]        
1 23545U 95017A   23316.73814190  .00006658  00000+0  94702-3 0  9998
2 23545  69.9691  70.4984 0002471 151.0211 209.1074 14.77274603526151
ORBCOMM FM02 [-]        
1 23546U 95017B   23316.78547375  .00009640  00000+0  13813-2 0  9999
2 23546  69.9699  89.4867 0004286 124.9375 235.2176 14.76788841525814
ORBCOMM FM08 [-]        
1 25112U 97084A   23316.61234915  .00002457  00000+0  79216-3 0  9990
2 25112  45.0151 274.3671 0006591 201.9093 158.1475 14.41548147357368
ORBCOMM FM10 [-]        
1 25113U 97084B   23316.88734463  .00002132  00000+0  69411-3 0  9999
2 25113  45.0163 274.7909 0003610 175.0673 185.0213 14.41486996532383
ORBCOMM FM11 [+]        
1 25114U 97084C   23316.61453377  .00002342  00000+0  75989-3 0  9993
2 25114  45.0148 276.0239 0004326 171.6627 188.4296 14.41375649357312
ORBCOMM FM12 [-]        
1 25115U 97084D   23316.57101742  .00002271  00000+0  73869-3 0  9991
2 25115  45.0156 275.8785 0003405 176.9452 183.1419 14.41357058357106
ORBCOMM FM09 [-]        
1 25116U 97084E   23316.92491275  .00001901  00000+0  62568-3 0  9997
2 25116  45.0159 274.8298 0004274 153.0070 207.1003 14.41329309357367
